start=new Date('2022-01-02T00:00:00.000Z').valueOf();
sats=[{"ECCENTRICITY":"0.00023220","LAUNCH_DATE":"2019-05-24","MEAN_ELEMENT_THEORY":"SGP4","SITE":"AFETR","OBJECT_NAME":"STARLINK-24","PERIAPSIS":"505.529","REV_AT_EPOCH":"14265","MEAN_MOTION_DOT":"0.00013986","RA_OF_ASC_NODE":"165.7187","EPHEMERIS_TYPE":"0","TLE_LINE1":"1 44238U 19029D   21365.85376329  .00013986  00000-0  66288-3 0  9992","FILE":"3255243","SEMIMAJOR_AXIS":"6885.263","DECAY_DATE":null,"OBJECT_TYPE":"PAYLOAD","APOAPSIS":"508.727","COUNTRY_CODE":"US","INCLINATION":"52.9921","REF_FRAME":"TEME","RCS_SIZE":"LARGE","ELEMENT_SET_NO":"999","TIME_SYSTEM":"UTC","PERIOD":"94.763","BSTAR":"0.00066288000000","MEAN_MOTION":"15.19574420","OBJECT_ID":"2019-029D","MEAN_MOTION_DDOT":"0.0000000000000","EPOCH":"2021-12-31T20:29:25.148256","CLASSIFICATION_TYPE":"U","ARG_OF_PERICENTER":"118.3324","GP_ID":"192841698","CENTER_NAME":"EARTH","TLE_LINE2":"2 44238  52.9921 165.7187 0002322 118.3324 241.7904 15.19574420142650","MEAN_ANOMALY":"241.7904","NORAD_CAT_ID":"44238"},{"CENTER_NAME":"EARTH","GP_ID":"192892866","ARG_OF_PERICENTER":"344.0285","NORAD_CAT_ID":"44249","MEAN_ANOMALY":"16.0557","TLE_LINE2":"2 44249  52.9763 128.0581 0004871 344.0285  16.0557 15.26231481143957","EPOCH":"2022-01-01T18:18:58.078080","MEAN_MOTION_DDOT":"0.0000000000000","OBJECT_ID":"2019-029Q","CLASSIFICATION_TYPE":"U","BSTAR":"0.00120350000000","PERIOD":"94.350","TIME_SYSTEM":"UTC","MEAN_MOTION":"15.26231481","REF_FRAME":"TEME","INCLINATION":"52.9763","ELEMENT_SET_NO":"999","RCS_SIZE":"LARGE","SEMIMAJOR_AXIS":"6865.227","FILE":"3255246","APOAPSIS":"490.436","COUNTRY_CODE":"US","OBJECT_TYPE":"PAYLOAD","DECAY_DATE":null,"RA_OF_ASC_NODE":"128.0581","MEAN_MOTION_DOT":"0.00031373","PERIAPSIS":"483.748","REV_AT_EPOCH":"14395","TLE_LINE1":"1 44249U 19029Q   22001.76317220  .00031373  00000-0  12035-2 0  9997","EPHEMERIS_TYPE":"0","SITE":"AFETR","MEAN_ELEMENT_THEORY":"SGP4","OBJECT_NAME":"STARLINK-61","ECCENTRICITY":"0.00048710","LAUNCH_DATE":"2019-05-24"},{"MEAN_ELEMENT_THEORY":"SGP4","SITE":"AFETR","OBJECT_NAME":"STARLINK-71","ECCENTRICITY":"0.00029340","LAUNCH_DATE":"2019-05-24","FILE":"3255244","SEMIMAJOR_AXIS":"6877.789","DECAY_DATE":null,"COUNTRY_CODE":"US","APOAPSIS":"501.671","OBJECT_TYPE":"PAYLOAD","MEAN_MOTION_DOT":"0.00021050","REV_AT_EPOCH":"14342","PERIAPSIS":"497.636","RA_OF_ASC_NODE":"161.1087","EPHEMERIS_TYPE":"0","TLE_LINE1":"1 44252U 19029T   22001.59983296  .00021050  00000-0  92037-3 0  9996","BSTAR":"0.00092037000000","PERIOD":"94.609","TIME_SYSTEM":"UTC","MEAN_MOTION":"15.22052152","INCLINATION":"53.0021","REF_FRAME":"TEME","RCS_SIZE":"LARGE","ELEMENT_SET_NO":"999","ARG_OF_PERICENTER":"140.6303","CENTER_NAME":"EARTH","GP_ID":"192866696","MEAN_ANOMALY":"219.4906","TLE_LINE2":"2 44252  53.0021 161.1087 0002934 140.6303 219.4906 15.22052152143429","NORAD_CAT_ID":"44252","OBJECT_ID":"2019-029T","EPOCH":"2022-01-01T14:23:45.567744","MEAN_MOTION_DDOT":"0.0000000000000","CLASSIFICATION_TYPE":"U"},{"OBJECT_ID":"2019-029Y","EPOCH":"2022-01-01T06:25:19.808832","MEAN_MOTION_DDOT":"0.0000000000000","CLASSIFICATION_TYPE":"U","ARG_OF_PERICENTER":"73.1914","CENTER_NAME":"EARTH","GP_ID":"192866947","MEAN_ANOMALY":"286.9968","TLE_LINE2":"2 44257  52.9902   4.6867 0007876  73.1914 286.9968 15.76532477145763","NORAD_CAT_ID":"44257","INCLINATION":"52.9902","REF_FRAME":"TEME","RCS_SIZE":"LARGE","ELEMENT_SET_NO":"999","PERIOD":"91.340","BSTAR":"0.00167890000000","TIME_SYSTEM":"UTC","MEAN_MOTION":"15.76532477","MEAN_MOTION_DOT":"0.00281389","PERIAPSIS":"334.984","REV_AT_EPOCH":"14576","RA_OF_ASC_NODE":"4.6867","EPHEMERIS_TYPE":"0","TLE_LINE1":"1 44257U 19029Y   22001.26759038  .00281389  00000-0  16789-2 0  9992","FILE":"3255244","SEMIMAJOR_AXIS":"6718.411","DECAY_DATE":null,"COUNTRY_CODE":"US","APOAPSIS":"345.567","OBJECT_TYPE":"PAYLOAD","ECCENTRICITY":"0.00078760","LAUNCH_DATE":"2019-05-24","MEAN_ELEMENT_THEORY":"SGP4","SITE":"AFETR","OBJECT_NAME":"STARLINK-43"},{"NORAD_CAT_ID":"44282","MEAN_ANOMALY":"204.9074","TLE_LINE2":"2 44282  53.0185  68.5813 0002040 155.2027 204.9074 15.40748200144245","CENTER_NAME":"EARTH","GP_ID":"192867689","ARG_OF_PERICENTER":"155.2027","CLASSIFICATION_TYPE":"U","EPOCH":"2022-01-01T10:44:20.716800","MEAN_MOTION_DDOT":"0.0000000000000","OBJECT_ID":"2019-029AZ","MEAN_MOTION":"15.40748200","PERIOD":"93.461","BSTAR":"0.00110010000000","TIME_SYSTEM":"UTC","ELEMENT_SET_NO":"999","RCS_SIZE":"LARGE","REF_FRAME":"TEME","INCLINATION":"53.0185","APOAPSIS":"445.294","COUNTRY_CODE":"US","OBJECT_TYPE":"PAYLOAD","DECAY_DATE":null,"SEMIMAJOR_AXIS":"6822.037","FILE":"3255244","TLE_LINE1":"1 44282U 19029AZ  22001.44746200  .00045547  00000-0  11001-2 0  9993","EPHEMERIS_TYPE":"0","RA_OF_ASC_NODE":"68.5813","MEAN_MOTION_DOT":"0.00045547","REV_AT_EPOCH":"14424","PERIAPSIS":"442.510","OBJECT_NAME":"STARLINK-80","SITE":"AFETR","MEAN_ELEMENT_THEORY":"SGP4","LAUNCH_DATE":"2019-05-24","ECCENTRICITY":"0.00020400"},{"TLE_LINE2":"2 44713  53.0494 205.7865 0002312  82.4999 277.6253 15.06392496118454","MEAN_ANOMALY":"277.6253","NORAD_CAT_ID":"44713","ARG_OF_PERICENTER":"82.4999","GP_ID":"192892156","CENTER_NAME":"EARTH","CLASSIFICATION_TYPE":"U","OBJECT_ID":"2019-074A","MEAN_MOTION_DDOT":"0.0000000000000","EPOCH":"2022-01-01T18:09:52.761888","MEAN_MOTION":"15.06392496","TIME_SYSTEM":"UTC","BSTAR":"0.00001755800000","PERIOD":"95.593","RCS_SIZE":"LARGE","ELEMENT_SET_NO":"999","INCLINATION":"53.0494","REF_FRAME":"TEME","DECAY_DATE":null,"OBJECT_TYPE":"PAYLOAD","APOAPSIS":"548.838","COUNTRY_CODE":"US","FILE":"3255246","SEMIMAJOR_AXIS":"6925.372","EPHEMERIS_TYPE":"0","TLE_LINE1":"1 44713U 19074A   22001.75686067 -.00000020  00000-0  17558-4 0  9993","REV_AT_EPOCH":"11845","PERIAPSIS":"545.635","MEAN_MOTION_DOT":"-0.00000020","RA_OF_ASC_NODE":"205.7865","OBJECT_NAME":"STARLINK-1007","MEAN_ELEMENT_THEORY":"SGP4","SITE":"AFETR","LAUNCH_DATE":"2019-11-11","ECCENTRICITY":"0.00023120"},{"OBJECT_ID":"2019-074B","MEAN_MOTION_DDOT":"0.0000000000000","EPOCH":"2022-01-01T20:50:28.869216","CLASSIFICATION_TYPE":"U","ARG_OF_PERICENTER":"77.3906","GP_ID":"192892906","CENTER_NAME":"EARTH","TLE_LINE2":"2 44714  53.0544 205.2822 0002123  77.3906 282.7320 15.06382719118471","MEAN_ANOMALY":"282.7320","NORAD_CAT_ID":"44714","INCLINATION":"53.0544","REF_FRAME":"TEME","RCS_SIZE":"LARGE","ELEMENT_SET_NO":"999","TIME_SYSTEM":"UTC","BSTAR":"0.00006942100000","PERIOD":"95.593","MEAN_MOTION":"15.06382719","REV_AT_EPOCH":"11847","PERIAPSIS":"545.796","MEAN_MOTION_DOT":"0.00000752","RA_OF_ASC_NODE":"205.2822","EPHEMERIS_TYPE":"0","TLE_LINE1":"1 44714U 19074B   22001.86838969  .00000752  00000-0  69421-4 0  9993","FILE":"3255246","SEMIMAJOR_AXIS":"6925.402","DECAY_DATE":null,"OBJECT_TYPE":"PAYLOAD","COUNTRY_CODE":"US","APOAPSIS":"548.737","ECCENTRICITY":"0.00021230","LAUNCH_DATE":"2019-11-11","MEAN_ELEMENT_THEORY":"SGP4","SITE":"AFETR","OBJECT_NAME":"STARLINK-1008"},{"OBJECT_NAME":"STARLINK-1009","SITE":"AFETR","MEAN_ELEMENT_THEORY":"SGP4","LAUNCH_DATE":"2019-11-11","ECCENTRICITY":"0.00021820","COUNTRY_CODE":"US","APOAPSIS":"548.748","OBJECT_TYPE":"PAYLOAD","DECAY_DATE":null,"SEMIMAJOR_AXIS":"6925.372","FILE":"3255246","TLE_LINE1":"1 44715U 19074C   22001.79097173  .00001011  00000-0  86804-4 0  9993","EPHEMERIS_TYPE":"0","RA_OF_ASC_NODE":"205.6240","MEAN_MOTION_DOT":"0.00001011","PERIAPSIS":"545.726","REV_AT_EPOCH":"11845","MEAN_MOTION":"15.06392428","PERIOD":"95.593","BSTAR":"0.00008680400000","TIME_SYSTEM":"UTC","ELEMENT_SET_NO":"999","RCS_SIZE":"LARGE","REF_FRAME":"TEME","INCLINATION":"53.0539","NORAD_CAT_ID":"44715","MEAN_ANOMALY":"274.4563","TLE_LINE2":"2 44715  53.0539 205.6240 0002182  85.6675 274.4563 15.06392428118457","CENTER_NAME":"EARTH","GP_ID":"192891654","ARG_OF_PERICENTER":"85.6675","CLASSIFICATION_TYPE":"U","EPOCH":"2022-01-01T18:58:59.957472","MEAN_MOTION_DDOT":"0.0000000000000","OBJECT_ID":"2019-074C"},{"TLE_LINE1":"1 44716U 19074D   22001.80942182  .00001452  00000-0  11636-3 0  9994","EPHEMERIS_TYPE":"0","RA_OF_ASC_NODE":"205.5449","MEAN_MOTION_DOT":"0.00001452","PERIAPSIS":"545.813","REV_AT_EPOCH":"11844","COUNTRY_CODE":"US","APOAPSIS":"548.664","OBJECT_TYPE":"PAYLOAD","DECAY_DATE":null,"SEMIMAJOR_AXIS":"6925.373","FILE":"3255246","LAUNCH_DATE":"2019-11-11","ECCENTRICITY":"0.00020580","OBJECT_NAME":"STARLINK-1010","SITE":"AFETR","MEAN_ELEMENT_THEORY":"SGP4","CLASSIFICATION_TYPE":"U","EPOCH":"2022-01-01T19:25:34.045248","MEAN_MOTION_DDOT":"0.0000000000000","OBJECT_ID":"2019-074D","NORAD_CAT_ID":"44716","MEAN_ANOMALY":"272.0004","TLE_LINE2":"2 44716  53.0554 205.5449 0002058  88.1221 272.0004 15.06391933118445","CENTER_NAME":"EARTH","GP_ID":"192891904","ARG_OF_PERICENTER":"88.1221","ELEMENT_SET_NO":"999","RCS_SIZE":"LARGE","REF_FRAME":"TEME","INCLINATION":"53.0554","MEAN_MOTION":"15.06391933","BSTAR":"0.00011636000000","PERIOD":"95.593","TIME_SYSTEM":"UTC"},{"REF_FRAME":"TEME","INCLINATION":"53.0534","ELEMENT_SET_NO":"999","RCS_SIZE":"LARGE","PERIOD":"95.593","BSTAR":"0.00007521000000","TIME_SYSTEM":"UTC","MEAN_MOTION":"15.06382317","EPOCH":"2022-01-01T19:22:53.927904","MEAN_MOTION_DDOT":"0.0000000000000","OBJECT_ID":"2019-074E","CLASSIFICATION_TYPE":"U","CENTER_NAME":"EARTH","GP_ID":"192892656","ARG_OF_PERICENTER":"68.0164","NORAD_CAT_ID":"44717","MEAN_ANOMALY":"292.1037","TLE_LINE2":"2 44717  53.0534 225.5399 0002005  68.0164 292.1037 15.06382317118181","ECCENTRICITY":"0.00020050","LAUNCH_DATE":"2019-11-11","SITE":"AFETR","MEAN_ELEMENT_THEORY":"SGP4","OBJECT_NAME":"STARLINK-1011","RA_OF_ASC_NODE":"225.5399","MEAN_MOTION_DOT":"0.00000838","REV_AT_EPOCH":"11818","PERIAPSIS":"545.879","TLE_LINE1":"1 44717U 19074E   22001.80756861  .00000838  00000-0  75210-4 0  9998","EPHEMERIS_TYPE":"0","SEMIMAJOR_AXIS":"6925.403","FILE":"3255246","APOAPSIS":"548.656","COUNTRY_CODE":"US","OBJECT_TYPE":"PAYLOAD","DECAY_DATE":null}];
